QIANFAN-9               
1 60387U 24140J   25224.55162035  .00000130  00000+0  18247-3 0  9995
2 60387  88.9844 311.9669 0016600 183.4397 176.6642 13.50959223 50837
QIANFAN-10              
1 60388U 24140K   25224.55574140  .00000126  00000+0  17700-3 0  9998
2 60388  88.9852 311.3027 0015852 161.2794 198.8943 13.50961342 50961
QIANFAN-11              
1 60389U 24140L   25224.51866115  .00000130  00000+0  18199-3 0  9999
2 60389  88.9780 311.9841 0014638 182.2614 177.8474 13.50961594 50704
QIANFAN-12              
1 60390U 24140M   25224.61324275  .00000144  00000+0  20414-3 0  9996
2 60390  88.9823 311.9644 0013190 189.2190 170.8721 13.50961507 50750
QIANFAN-13              
1 60391U 24140N   25224.58445883  .00000135  00000+0  19102-3 0  9994
2 60391  88.9835 312.0521 0012907 191.7948 168.2902 13.50961382 50779
QIANFAN-14              
1 60392U 24140P   25224.60909376  .00000149  00000+0  21286-3 0  9991
2 60392  88.9814 311.9734 0016570 193.7545 166.3157 13.50962520 50783
QIANFAN-15              
1 60393U 24140Q   25224.54341802  .00000135  00000+0  18985-3 0  9996
2 60393  88.9837 311.9078 0012890 178.1326 181.9875 13.50959082 50762
QIANFAN-16              
1 60394U 24140R   25224.53102348  .00000148  00000+0  20998-3 0  9997
2 60394  88.9840 312.0253 0014351 196.8828 163.1847 13.50961557 50673
