<?xml version="1.0" encoding="UTF-8"?>
<ndm xmlns:xsi="http://www.w3.org/2001/XMLSchema-instance" xsi:noNamespaceSchemaLocation="https://sanaregistry.org/r/ndmxml_unqualified/ndmxml-2.0.0-master-2.0.xsd">
<omm id="CCSDS_OMM_VERS" version="2.0">
<header><CREATION_DATE/><ORIGINATOR/></header><body><segment><metadata><OBJECT_NAME>QIANFAN-9</OBJECT_NAME><OBJECT_ID>2024-140J</OBJECT_ID><CENTER_NAME>EARTH</CENTER_NAME><REF_FRAME>TEME</REF_FRAME><TIME_SYSTEM>UTC</TIME_SYSTEM><MEAN_ELEMENT_THEORY>SGP4</MEAN_ELEMENT_THEORY></metadata><data><meanElements><EPOCH>2025-08-12T13:14:19.998240</EPOCH><MEAN_MOTION>13.50959223</MEAN_MOTION><ECCENTRICITY>.00166</ECCENTRICITY><INCLINATION>88.9844</INCLINATION><RA_OF_ASC_NODE>311.9669</RA_OF_ASC_NODE><ARG_OF_PERICENTER>183.4397</ARG_OF_PERICENTER><MEAN_ANOMALY>176.6642</MEAN_ANOMALY></meanElements><tleParameters><EPHEMERIS_TYPE>0</EPHEMERIS_TYPE><CLASSIFICATION_TYPE>U</CLASSIFICATION_TYPE><NORAD_CAT_ID>60387</NORAD_CAT_ID><ELEMENT_SET_NO>999</ELEMENT_SET_NO><REV_AT_EPOCH>5083</REV_AT_EPOCH><BSTAR>.18247E-3</BSTAR><MEAN_MOTION_DOT>.13E-5</MEAN_MOTION_DOT><MEAN_MOTION_DDOT>0</MEAN_MOTION_DDOT></tleParameters></data></segment></body></omm>
<omm id="CCSDS_OMM_VERS" version="2.0">
<header><CREATION_DATE/><ORIGINATOR/></header><body><segment><metadata><OBJECT_NAME>QIANFAN-10</OBJECT_NAME><OBJECT_ID>2024-140K</OBJECT_ID><CENTER_NAME>EARTH</CENTER_NAME><REF_FRAME>TEME</REF_FRAME><TIME_SYSTEM>UTC</TIME_SYSTEM><MEAN_ELEMENT_THEORY>SGP4</MEAN_ELEMENT_THEORY></metadata><data><meanElements><EPOCH>2025-08-12T13:20:16.056960</EPOCH><MEAN_MOTION>13.50961342</MEAN_MOTION><ECCENTRICITY>.0015852</ECCENTRICITY><INCLINATION>88.9852</INCLINATION><RA_OF_ASC_NODE>311.3027</RA_OF_ASC_NODE><ARG_OF_PERICENTER>161.2794</ARG_OF_PERICENTER><MEAN_ANOMALY>198.8943</MEAN_ANOMALY></meanElements><tleParameters><EPHEMERIS_TYPE>0</EPHEMERIS_TYPE><CLASSIFICATION_TYPE>U</CLASSIFICATION_TYPE><NORAD_CAT_ID>60388</NORAD_CAT_ID><ELEMENT_SET_NO>999</ELEMENT_SET_NO><REV_AT_EPOCH>5096</REV_AT_EPOCH><BSTAR>.177E-3</BSTAR><MEAN_MOTION_DOT>.126E-5</MEAN_MOTION_DOT><MEAN_MOTION_DDOT>0</MEAN_MOTION_DDOT></tleParameters></data></segment></body></omm>
<omm id="CCSDS_OMM_VERS" version="2.0">
<header><CREATION_DATE/><ORIGINATOR/></header><body><segment><metadata><OBJECT_NAME>QIANFAN-11</OBJECT_NAME><OBJECT_ID>2024-140L</OBJECT_ID><CENTER_NAME>EARTH</CENTER_NAME><REF_FRAME>TEME</REF_FRAME><TIME_SYSTEM>UTC</TIME_SYSTEM><MEAN_ELEMENT_THEORY>SGP4</MEAN_ELEMENT_THEORY></metadata><data><meanElements><EPOCH>2025-08-12T12:26:52.323360</EPOCH><MEAN_MOTION>13.50961594</MEAN_MOTION><ECCENTRICITY>.0014638</ECCENTRICITY><INCLINATION>88.9780</INCLINATION><RA_OF_ASC_NODE>311.9841</RA_OF_ASC_NODE><ARG_OF_PERICENTER>182.2614</ARG_OF_PERICENTER><MEAN_ANOMALY>177.8474</MEAN_ANOMALY></meanElements><tleParameters><EPHEMERIS_TYPE>0</EPHEMERIS_TYPE><CLASSIFICATION_TYPE>U</CLASSIFICATION_TYPE><NORAD_CAT_ID>60389</NORAD_CAT_ID><ELEMENT_SET_NO>999</ELEMENT_SET_NO><REV_AT_EPOCH>5070</REV_AT_EPOCH><BSTAR>.18199E-3</BSTAR><MEAN_MOTION_DOT>.13E-5</MEAN_MOTION_DOT><MEAN_MOTION_DDOT>0</MEAN_MOTION_DDOT></tleParameters></data></segment></body></omm>
<omm id="CCSDS_OMM_VERS" version="2.0">
<header><CREATION_DATE/><ORIGINATOR/></header><body><segment><metadata><OBJECT_NAME>QIANFAN-12</OBJECT_NAME><OBJECT_ID>2024-140M</OBJECT_ID><CENTER_NAME>EARTH</CENTER_NAME><REF_FRAME>TEME</REF_FRAME><TIME_SYSTEM>UTC</TIME_SYSTEM><MEAN_ELEMENT_THEORY>SGP4</MEAN_ELEMENT_THEORY></metadata><data><meanElements><EPOCH>2025-08-12T14:43:04.173600</EPOCH><MEAN_MOTION>13.50961507</MEAN_MOTION><ECCENTRICITY>.001319</ECCENTRICITY><INCLINATION>88.9823</INCLINATION><RA_OF_ASC_NODE>311.9644</RA_OF_ASC_NODE><ARG_OF_PERICENTER>189.2190</ARG_OF_PERICENTER><MEAN_ANOMALY>170.8721</MEAN_ANOMALY></meanElements><tleParameters><EPHEMERIS_TYPE>0</EPHEMERIS_TYPE><CLASSIFICATION_TYPE>U</CLASSIFICATION_TYPE><NORAD_CAT_ID>60390</NORAD_CAT_ID><ELEMENT_SET_NO>999</ELEMENT_SET_NO><REV_AT_EPOCH>5075</REV_AT_EPOCH><BSTAR>.20414E-3</BSTAR><MEAN_MOTION_DOT>.144E-5</MEAN_MOTION_DOT><MEAN_MOTION_DDOT>0</MEAN_MOTION_DDOT></tleParameters></data></segment></body></omm>
<omm id="CCSDS_OMM_VERS" version="2.0">
<header><CREATION_DATE/><ORIGINATOR/></header><body><segment><metadata><OBJECT_NAME>QIANFAN-13</OBJECT_NAME><OBJECT_ID>2024-140N</OBJECT_ID><CENTER_NAME>EARTH</CENTER_NAME><REF_FRAME>TEME</REF_FRAME><TIME_SYSTEM>UTC</TIME_SYSTEM><MEAN_ELEMENT_THEORY>SGP4</MEAN_ELEMENT_THEORY></metadata><data><meanElements><EPOCH>2025-08-12T14:01:37.242912</EPOCH><MEAN_MOTION>13.50961382</MEAN_MOTION><ECCENTRICITY>.0012907</ECCENTRICITY><INCLINATION>88.9835</INCLINATION><RA_OF_ASC_NODE>312.0521</RA_OF_ASC_NODE><ARG_OF_PERICENTER>191.7948</ARG_OF_PERICENTER><MEAN_ANOMALY>168.2902</MEAN_ANOMALY></meanElements><tleParameters><EPHEMERIS_TYPE>0</EPHEMERIS_TYPE><CLASSIFICATION_TYPE>U</CLASSIFICATION_TYPE><NORAD_CAT_ID>60391</NORAD_CAT_ID><ELEMENT_SET_NO>999</ELEMENT_SET_NO><REV_AT_EPOCH>5077</REV_AT_EPOCH><BSTAR>.19102E-3</BSTAR><MEAN_MOTION_DOT>.135E-5</MEAN_MOTION_DOT><MEAN_MOTION_DDOT>0</MEAN_MOTION_DDOT></tleParameters></data></segment></body></omm>
<omm id="CCSDS_OMM_VERS" version="2.0">
<header><CREATION_DATE/><ORIGINATOR/></header><body><segment><metadata><OBJECT_NAME>QIANFAN-14</OBJECT_NAME><OBJECT_ID>2024-140P</OBJECT_ID><CENTER_NAME>EARTH</CENTER_NAME><REF_FRAME>TEME</REF_FRAME><TIME_SYSTEM>UTC</TIME_SYSTEM><MEAN_ELEMENT_THEORY>SGP4</MEAN_ELEMENT_THEORY></metadata><data><meanElements><EPOCH>2025-08-12T14:37:05.700864</EPOCH><MEAN_MOTION>13.50962520</MEAN_MOTION><ECCENTRICITY>.001657</ECCENTRICITY><INCLINATION>88.9814</INCLINATION><RA_OF_ASC_NODE>311.9734</RA_OF_ASC_NODE><ARG_OF_PERICENTER>193.7545</ARG_OF_PERICENTER><MEAN_ANOMALY>166.3157</MEAN_ANOMALY></meanElements><tleParameters><EPHEMERIS_TYPE>0</EPHEMERIS_TYPE><CLASSIFICATION_TYPE>U</CLASSIFICATION_TYPE><NORAD_CAT_ID>60392</NORAD_CAT_ID><ELEMENT_SET_NO>999</ELEMENT_SET_NO><REV_AT_EPOCH>5078</REV_AT_EPOCH><BSTAR>.21286E-3</BSTAR><MEAN_MOTION_DOT>.149E-5</MEAN_MOTION_DOT><MEAN_MOTION_DDOT>0</MEAN_MOTION_DDOT></tleParameters></data></segment></body></omm>
<omm id="CCSDS_OMM_VERS" version="2.0">
<header><CREATION_DATE/><ORIGINATOR/></header><body><segment><metadata><OBJECT_NAME>QIANFAN-15</OBJECT_NAME><OBJECT_ID>2024-140Q</OBJECT_ID><CENTER_NAME>EARTH</CENTER_NAME><REF_FRAME>TEME</REF_FRAME><TIME_SYSTEM>UTC</TIME_SYSTEM><MEAN_ELEMENT_THEORY>SGP4</MEAN_ELEMENT_THEORY></metadata><data><meanElements><EPOCH>2025-08-12T13:02:31.316928</EPOCH><MEAN_MOTION>13.50959082</MEAN_MOTION><ECCENTRICITY>.001289</ECCENTRICITY><INCLINATION>88.9837</INCLINATION><RA_OF_ASC_NODE>311.9078</RA_OF_ASC_NODE><ARG_OF_PERICENTER>178.1326</ARG_OF_PERICENTER><MEAN_ANOMALY>181.9875</MEAN_ANOMALY></meanElements><tleParameters><EPHEMERIS_TYPE>0</EPHEMERIS_TYPE><CLASSIFICATION_TYPE>U</CLASSIFICATION_TYPE><NORAD_CAT_ID>60393</NORAD_CAT_ID><ELEMENT_SET_NO>999</ELEMENT_SET_NO><REV_AT_EPOCH>5076</REV_AT_EPOCH><BSTAR>.18985E-3</BSTAR><MEAN_MOTION_DOT>.135E-5</MEAN_MOTION_DOT><MEAN_MOTION_DDOT>0</MEAN_MOTION_DDOT></tleParameters></data></segment></body></omm>
<omm id="CCSDS_OMM_VERS" version="2.0">
<header><CREATION_DATE/><ORIGINATOR/></header><body><segment><metadata><OBJECT_NAME>QIANFAN-16</OBJECT_NAME><OBJECT_ID>2024-140R</OBJECT_ID><CENTER_NAME>EARTH</CENTER_NAME><REF_FRAME>TEME</REF_FRAME><TIME_SYSTEM>UTC</TIME_SYSTEM><MEAN_ELEMENT_THEORY>SGP4</MEAN_ELEMENT_THEORY></metadata><data><meanElements><EPOCH>2025-08-12T12:44:40.428672</EPOCH><MEAN_MOTION>13.50961557</MEAN_MOTION><ECCENTRICITY>.0014351</ECCENTRICITY><INCLINATION>88.9840</INCLINATION><RA_OF_ASC_NODE>312.0253</RA_OF_ASC_NODE><ARG_OF_PERICENTER>196.8828</ARG_OF_PERICENTER><MEAN_ANOMALY>163.1847</MEAN_ANOMALY></meanElements><tleParameters><EPHEMERIS_TYPE>0</EPHEMERIS_TYPE><CLASSIFICATION_TYPE>U</CLASSIFICATION_TYPE><NORAD_CAT_ID>60394</NORAD_CAT_ID><ELEMENT_SET_NO>999</ELEMENT_SET_NO><REV_AT_EPOCH>5067</REV_AT_EPOCH><BSTAR>.20998E-3</BSTAR><MEAN_MOTION_DOT>.148E-5</MEAN_MOTION_DOT><MEAN_MOTION_DDOT>0</MEAN_MOTION_DDOT></tleParameters></data></segment></body></omm>

</ndm>
